ONEWEB-0291             
1 49081U 21075G   25299.35582425  .00000040  00000+0  68577-4 0  9998
2 49081  87.9125  52.3453 0001815  88.7822 271.3517 13.17649452202819
ONEWEB-0293             
1 49082U 21075H   25299.38113425  .00000053  00000+0  10324-3 0  9992
2 49082  87.9114  52.3656 0001822  99.5573 260.5764 13.17649690202845
ONEWEB-0294             
1 49083U 21075J   25299.51004426  .00000276  00000+0  73274-3 0  9998
2 49083  87.8971  37.0748 0002240  97.8313 262.3070 13.12443121203922
ONEWEB-0295             
1 49084U 21075K   25299.38027660  .00000104  00000+0  23589-3 0  9993
2 49084  87.9116  52.3704 0001781  88.1854 271.9481 13.17647175202807
ONEWEB-0296             
1 49085U 21075L   25299.26186850  .00000529  00000+0  14345-2 0  9998
2 49085  87.8969  37.1295 0002037  88.8706 271.2656 13.12445557203899
ONEWEB-0297             
1 49086U 21075M   25299.29268126 -.00000105  00000+0 -32647-3 0  9997
2 49086  87.8963  37.1583 0001672  99.1106 261.0211 13.12443909204509
ONEWEB-0298             
1 49087U 21075N   25299.38464641  .00000082  00000+0  17707-3 0  9990
2 49087  87.9121  52.3657 0001623 101.1575 258.9739 13.17649826202833
ONEWEB-0299             
1 49088U 21075P   25299.38619553  .00000141  00000+0  33084-3 0  9997
2 49088  87.9126  52.3233 0001604  94.9901 265.1414 13.17649124202819
